[
  {
    "COMMENT": "GENERATED VIA SPACETRACK.ORG API",
    "ORIGINATOR": "18 SPCS",
    "NORAD_CAT_ID": "33105",
    "OBJECT_NAME": "JASON 2",
    "OBJECT_TYPE": "PAYLOAD",
    "CLASSIFICATION_TYPE": "U",
    "INTLDES": "08032A",
    "EPOCH": "2023-05-03 21:30:22",
    "EPOCH_MICROSECONDS": "65408",
    "MEAN_MOTION": "12.87659188",
    "ECCENTRICITY": "0.0008043",
    "INCLINATION": "66.0396",
    "RA_OF_ASC_NODE": "288.572",
    "ARG_OF_PERICENTER": "271.4498",
    "MEAN_ANOMALY": "254.2636",
    "EPHEMERIS_TYPE": "0",
    "ELEMENT_SET_NO": "999",
    "REV_AT_EPOCH": "69688",
    "BSTAR": "-0.000026251",
    "MEAN_MOTION_DOT": "-0.00000069",
    "MEAN_MOTION_DDOT": "0",
    "FILE": "3900281",
    "TLE_LINE0": "0 JASON 2",
    "TLE_LINE1": "1 33105U 08032A   23123.89608872 -.00000069  00000-0 -26251-4 0  9991",
    "TLE_LINE2": "2 33105  66.0396 288.5720 0008043 271.4498 254.2636 12.87659188696886",
    "OBJECT_ID": "2008-032A",
    "OBJECT_NUMBER": "33105",
    "SEMIMAJOR_AXIS": "7688.965",
    "PERIOD": "111.831",
    "APOGEE": "1317.014",
    "PERIGEE": "1304.646",
    "DECAYED": "0"
  },
  {
    "COMMENT": "GENERATED VIA SPACETRACK.ORG API",
    "ORIGINATOR": "18 SPCS",
    "NORAD_CAT_ID": "33105",
    "OBJECT_NAME": "JASON 2",
    "OBJECT_TYPE": "PAYLOAD",
    "CLASSIFICATION_TYPE": "U",
    "INTLDES": "08032A",
    "EPOCH": "2023-05-04 13:48:05",
    "EPOCH_MICROSECONDS": "660928",
    "MEAN_MOTION": "12.87659174",
    "ECCENTRICITY": "0.0008044",
    "INCLINATION": "66.0396",
    "RA_OF_ASC_NODE": "287.1443",
    "ARG_OF_PERICENTER": "271.3764",
    "MEAN_ANOMALY": "161.4732",
    "EPHEMERIS_TYPE": "0",
    "ELEMENT_SET_NO": "999",
    "REV_AT_EPOCH": "69697",
    "BSTAR": "-0.000060985",
    "MEAN_MOTION_DOT": "-0.00000078",
    "MEAN_MOTION_DDOT": "0",
    "FILE": "3900892",
    "TLE_LINE0": "0 JASON 2",
    "TLE_LINE1": "1 33105U 08032A   23124.57506552 -.00000078  00000-0 -60985-4 0  9991",
    "TLE_LINE2": "2 33105  66.0396 287.1443 0008044 271.3764 161.4732 12.87659174696970",
    "OBJECT_ID": "2008-032A",
    "OBJECT_NUMBER": "33105",
    "SEMIMAJOR_AXIS": "7688.965",
    "PERIOD": "111.831",
    "APOGEE": "1317.015",
    "PERIGEE": "1304.645",
    "DECAYED": "0"
  },
  {
    "COMMENT": "GENERATED VIA SPACETRACK.ORG API",
    "ORIGINATOR": "18 SPCS",
    "NORAD_CAT_ID": "33105",
    "OBJECT_NAME": "JASON 2",
    "OBJECT_TYPE": "PAYLOAD",
    "CLASSIFICATION_TYPE": "U",
    "INTLDES": "08032A",
    "EPOCH": "2023-05-04 21:40:00",
    "EPOCH_MICROSECONDS": "383808",
    "MEAN_MOTION": "12.87659152",
    "ECCENTRICITY": "0.0008044",
    "INCLINATION": "66.0396",
    "RA_OF_ASC_NODE": "286.4551",
    "ARG_OF_PERICENTER": "271.3839",
    "MEAN_ANOMALY": "240.4703",
    "EPHEMERIS_TYPE": "0",
    "ELEMENT_SET_NO": "999",
    "REV_AT_EPOCH": "69710",
    "BSTAR": "-0.000055287",
    "MEAN_MOTION_DOT": "-0.00000076",
    "MEAN_MOTION_DDOT": "0",
    "FILE": "3900946",
    "TLE_LINE0": "0 JASON 2",
    "TLE_LINE1": "1 33105U 08032A   23124.90278222 -.00000076  00000-0 -55287-4 0  9995",
    "TLE_LINE2": "2 33105  66.0396 286.4551 0008044 271.3839 240.4703 12.87659152697103",
    "OBJECT_ID": "2008-032A",
    "OBJECT_NUMBER": "33105",
    "SEMIMAJOR_AXIS": "7688.965",
    "PERIOD": "111.831",
    "APOGEE": "1317.015",
    "PERIGEE": "1304.645",
    "DECAYED": "0"
  },
  {
    "COMMENT": "GENERATED VIA SPACETRACK.ORG API",
    "ORIGINATOR": "18 SPCS",
    "NORAD_CAT_ID": "33105",
    "OBJECT_NAME": "JASON 2",
    "OBJECT_TYPE": "PAYLOAD",
    "CLASSIFICATION_TYPE": "U",
    "INTLDES": "08032A",
    "EPOCH": "2023-05-05 19:47:16",
    "EPOCH_MICROSECONDS": "337760",
    "MEAN_MOTION": "12.87659135",
    "ECCENTRICITY": "0.000805",
    "INCLINATION": "66.0396",
    "RA_OF_ASC_NODE": "284.517",
    "ARG_OF_PERICENTER": "271.3497",
    "MEAN_ANOMALY": "192.7479",
    "EPHEMERIS_TYPE": "0",
    "ELEMENT_SET_NO": "999",
    "REV_AT_EPOCH": "69713",
    "BSTAR": "-0.00004253",
    "MEAN_MOTION_DOT": "-0.00000073",
    "MEAN_MOTION_DDOT": "0",
    "FILE": "3901993",
    "TLE_LINE0": "0 JASON 2",
    "TLE_LINE1": "1 33105U 08032A   23125.82449465 -.00000073  00000-0 -42530-4 0  9990",
    "TLE_LINE2": "2 33105  66.0396 284.5170 0008050 271.3497 192.7479 12.87659135697139",
    "OBJECT_ID": "2008-032A",
    "OBJECT_NUMBER": "33105",
    "SEMIMAJOR_AXIS": "7688.965",
    "PERIOD": "111.831",
    "APOGEE": "1317.020",
    "PERIGEE": "1304.641",
    "DECAYED": "0"
  },
  {
    "COMMENT": "GENERATED VIA SPACETRACK.ORG API",
    "ORIGINATOR": "18 SPCS",
    "NORAD_CAT_ID": "33105",
    "OBJECT_NAME": "JASON 2",
    "OBJECT_TYPE": "PAYLOAD",
    "CLASSIFICATION_TYPE": "U",
    "INTLDES": "08032A",
    "EPOCH": "2023-05-06 14:14:29",
    "EPOCH_MICROSECONDS": "226048",
    "MEAN_MOTION": "12.87659103",
    "ECCENTRICITY": "0.0008064",
    "INCLINATION": "66.0386",
    "RA_OF_ASC_NODE": "282.9003",
    "ARG_OF_PERICENTER": "271.2531",
    "MEAN_ANOMALY": "156.7801",
    "EPHEMERIS_TYPE": "0",
    "ELEMENT_SET_NO": "999",
    "REV_AT_EPOCH": "69723",
    "BSTAR": "-0.0000010663",
    "MEAN_MOTION_DOT": "-0.00000063",
    "MEAN_MOTION_DDOT": "0",
    "FILE": "3902298",
    "TLE_LINE0": "0 JASON 2",
    "TLE_LINE1": "1 33105U 08032A   23126.59339382 -.00000063  00000-0 -10663-5 0  9993",
    "TLE_LINE2": "2 33105  66.0386 282.9003 0008064 271.2531 156.7801 12.87659103697233",
    "OBJECT_ID": "2008-032A",
    "OBJECT_NUMBER": "33105",
    "SEMIMAJOR_AXIS": "7688.965",
    "PERIOD": "111.831",
    "APOGEE": "1317.031",
    "PERIGEE": "1304.630",
    "DECAYED": "0"
  },
  {
    "COMMENT": "GENERATED VIA SPACETRACK.ORG API",
    "ORIGINATOR": "18 SPCS",
    "NORAD_CAT_ID": "33105",
    "OBJECT_NAME": "JASON 2",
    "OBJECT_TYPE": "PAYLOAD",
    "CLASSIFICATION_TYPE": "U",
    "INTLDES": "08032A",
    "EPOCH": "2023-05-07 14:29:57",
    "EPOCH_MICROSECONDS": "251904",
    "MEAN_MOTION": "12.87659151",
    "ECCENTRICITY": "0.0008068",
    "INCLINATION": "66.0397",
    "RA_OF_ASC_NODE": "280.7748",
    "ARG_OF_PERICENTER": "271.1696",
    "MEAN_ANOMALY": "161.7659",
    "EPHEMERIS_TYPE": "0",
    "ELEMENT_SET_NO": "999",
    "REV_AT_EPOCH": "69736",
    "BSTAR": "-0.000029186",
    "MEAN_MOTION_DOT": "-0.0000007",
    "MEAN_MOTION_DDOT": "0",
    "FILE": "3903215",
    "TLE_LINE0": "0 JASON 2",
    "TLE_LINE1": "1 33105U 08032A   23127.60413486 -.00000070  00000-0 -29186-4 0  9991",
    "TLE_LINE2": "2 33105  66.0397 280.7748 0008068 271.1696 161.7659 12.87659151697366",
    "OBJECT_ID": "2008-032A",
    "OBJECT_NUMBER": "33105",
    "SEMIMAJOR_AXIS": "7688.965",
    "PERIOD": "111.831",
    "APOGEE": "1317.034",
    "PERIGEE": "1304.627",
    "DECAYED": "0"
  },
  {
    "COMMENT": "GENERATED VIA SPACETRACK.ORG API",
    "ORIGINATOR": "18 SPCS",
    "NORAD_CAT_ID": "33105",
    "OBJECT_NAME": "JASON 2",
    "OBJECT_TYPE": "PAYLOAD",
    "CLASSIFICATION_TYPE": "U",
    "INTLDES": "08032A",
    "EPOCH": "2023-05-07 18:21:54",
    "EPOCH_MICROSECONDS": "495648",
    "MEAN_MOTION": "12.8765915",
    "ECCENTRICITY": "0.000807",
    "INCLINATION": "66.0397",
    "RA_OF_ASC_NODE": "280.4361",
    "ARG_OF_PERICENTER": "271.1621",
    "MEAN_ANOMALY": "188.3941",
    "EPHEMERIS_TYPE": "0",
    "ELEMENT_SET_NO": "999",
    "REV_AT_EPOCH": "69747",
    "BSTAR": "-0.000020378",
    "MEAN_MOTION_DOT": "-0.00000067",
    "MEAN_MOTION_DDOT": "0",
    "FILE": "3903250",
    "TLE_LINE0": "0 JASON 2",
    "TLE_LINE1": "1 33105U 08032A   23127.76521407 -.00000067  00000-0 -20378-4 0  9991",
    "TLE_LINE2": "2 33105  66.0397 280.4361 0008070 271.1621 188.3941 12.87659150697475",
    "OBJECT_ID": "2008-032A",
    "OBJECT_NUMBER": "33105",
    "SEMIMAJOR_AXIS": "7688.965",
    "PERIOD": "111.831",
    "APOGEE": "1317.035",
    "PERIGEE": "1304.625",
    "DECAYED": "0"
  },
  {
    "COMMENT": "GENERATED VIA SPACETRACK.ORG API",
    "ORIGINATOR": "18 SPCS",
    "NORAD_CAT_ID": "33105",
    "OBJECT_NAME": "JASON 2",
    "OBJECT_TYPE": "PAYLOAD",
    "CLASSIFICATION_TYPE": "U",
    "INTLDES": "08032A",
    "EPOCH": "2023-05-07 20:16:29",
    "EPOCH_MICROSECONDS": "996832",
    "MEAN_MOTION": "12.87659147",
    "ECCENTRICITY": "0.000807",
    "INCLINATION": "66.0397",
    "RA_OF_ASC_NODE": "280.2688",
    "ARG_OF_PERICENTER": "271.1635",
    "MEAN_ANOMALY": "197.2439",
    "EPHEMERIS_TYPE": "0",
    "ELEMENT_SET_NO": "999",
    "REV_AT_EPOCH": "69739",
    "BSTAR": "-0.000021376",
    "MEAN_MOTION_DOT": "-0.00000068",
    "MEAN_MOTION_DDOT": "0",
    "FILE": "3903413",
    "TLE_LINE0": "0 JASON 2",
    "TLE_LINE1": "1 33105U 08032A   23127.84479163 -.00000068  00000-0 -21376-4 0  9991",
    "TLE_LINE2": "2 33105  66.0397 280.2688 0008070 271.1635 197.2439 12.87659147697398",
    "OBJECT_ID": "2008-032A",
    "OBJECT_NUMBER": "33105",
    "SEMIMAJOR_AXIS": "7688.965",
    "PERIOD": "111.831",
    "APOGEE": "1317.035",
    "PERIGEE": "1304.625",
    "DECAYED": "0"
  }
]